CCSDS_OMM_VERS = 2.0
CREATION_DATE  = 
ORIGINATOR     = 

OBJECT_NAME    = UNKNOWN
OBJECT_ID      = 
CENTER_NAME    = EARTH
REF_FRAME      = TEME
TIME_SYSTEM    = UTC
MEAN_ELEMENT_THEORY = SGP/SGP4

EPOCH          = 2026-03-31T00:38:15.082944
MEAN_MOTION    = 14.06068330
ECCENTRICITY   = .0154915
INCLINATION    = 98.7320
RA_OF_ASC_NODE = 195.0738
ARG_OF_PERICENTER = 123.4543
MEAN_ANOMALY   = 238.1546

EPHEMERIS_TYPE = 0
CLASSIFICATION_TYPE = U
NORAD_CAT_ID   = 87884
ELEMENT_SET_NO = 999
REV_AT_EPOCH   = 63358
BSTAR          = .16353E-3
MEAN_MOTION_DOT = .258E-5
MEAN_MOTION_DDOT = 0

CCSDS_OMM_VERS = 2.0
CREATION_DATE  = 
ORIGINATOR     = 

OBJECT_NAME    = UNKNOWN
OBJECT_ID      = 
CENTER_NAME    = EARTH
REF_FRAME      = TEME
TIME_SYSTEM    = UTC
MEAN_ELEMENT_THEORY = SGP/SGP4

EPOCH          = 2026-03-27T15:51:13.578912
MEAN_MOTION    = 13.73127491
ECCENTRICITY   = .0031922
INCLINATION    = 82.9367
RA_OF_ASC_NODE = 222.1462
ARG_OF_PERICENTER = 104.6301
MEAN_ANOMALY   = 272.3687

EPHEMERIS_TYPE = 0
CLASSIFICATION_TYPE = U
NORAD_CAT_ID   = 87934
ELEMENT_SET_NO = 999
REV_AT_EPOCH   = 61871
BSTAR          = .8285E-4
MEAN_MOTION_DOT = .92E-6
MEAN_MOTION_DDOT = 0

CCSDS_OMM_VERS = 2.0
CREATION_DATE  = 
ORIGINATOR     = 

OBJECT_NAME    = UNKNOWN
OBJECT_ID      = 
CENTER_NAME    = EARTH
REF_FRAME      = TEME
TIME_SYSTEM    = UTC
MEAN_ELEMENT_THEORY = SGP/SGP4

EPOCH          = 2026-04-01T11:14:10.468608
MEAN_MOTION    = 12.35679013
ECCENTRICITY   = .089405
INCLINATION    = 28.6205
RA_OF_ASC_NODE = 158.9076
ARG_OF_PERICENTER = 66.7034
MEAN_ANOMALY   = 302.5014

EPHEMERIS_TYPE = 0
CLASSIFICATION_TYPE = U
NORAD_CAT_ID   = 87991
ELEMENT_SET_NO = 999
REV_AT_EPOCH   = 53657
BSTAR          = -.49718E-2
MEAN_MOTION_DOT = -.2476E-4
MEAN_MOTION_DDOT = 0

CCSDS_OMM_VERS = 2.0
CREATION_DATE  = 
ORIGINATOR     = 

OBJECT_NAME    = UNKNOWN
OBJECT_ID      = 2025-241B
CENTER_NAME    = EARTH
REF_FRAME      = TEME
TIME_SYSTEM    = UTC
MEAN_ELEMENT_THEORY = SGP/SGP4

EPOCH          = 2026-03-18T20:58:45.947424
MEAN_MOTION    = 15.22548355
ECCENTRICITY   = .0004488
INCLINATION    = 51.6342
RA_OF_ASC_NODE = 29.1833
ARG_OF_PERICENTER = 186.7062
MEAN_ANOMALY   = 173.3856

EPHEMERIS_TYPE = 0
CLASSIFICATION_TYPE = U
NORAD_CAT_ID   = 88780
ELEMENT_SET_NO = 999
REV_AT_EPOCH   = 114
BSTAR          = .35116E-3
MEAN_MOTION_DOT = .7938E-4
MEAN_MOTION_DDOT = 0

CCSDS_OMM_VERS = 2.0
CREATION_DATE  = 
ORIGINATOR     = 

OBJECT_NAME    = UNKNOWN
OBJECT_ID      = 
CENTER_NAME    = EARTH
REF_FRAME      = TEME
TIME_SYSTEM    = UTC
MEAN_ELEMENT_THEORY = SGP/SGP4

EPOCH          = 2026-04-01T23:25:42.224160
MEAN_MOTION    = 14.46425672
ECCENTRICITY   = .0190322
INCLINATION    = 97.8428
RA_OF_ASC_NODE = 277.9346
ARG_OF_PERICENTER = 52.3824
MEAN_ANOMALY   = 309.4475

EPHEMERIS_TYPE = 0
CLASSIFICATION_TYPE = U
NORAD_CAT_ID   = 89005
ELEMENT_SET_NO = 999
REV_AT_EPOCH   = 55002
BSTAR          = .55699E-3
MEAN_MOTION_DOT = .2463E-4
MEAN_MOTION_DDOT = 0

CCSDS_OMM_VERS = 2.0
CREATION_DATE  = 
ORIGINATOR     = 

OBJECT_NAME    = UNKNOWN
OBJECT_ID      = 
CENTER_NAME    = EARTH
REF_FRAME      = TEME
TIME_SYSTEM    = UTC
MEAN_ELEMENT_THEORY = SGP/SGP4

EPOCH          = 2026-04-01T23:44:39.703488
MEAN_MOTION    = 14.95963937
ECCENTRICITY   = .0021386
INCLINATION    = 98.0430
RA_OF_ASC_NODE = 359.1144
ARG_OF_PERICENTER = 322.6896
MEAN_ANOMALY   = 37.2838

EPHEMERIS_TYPE = 0
CLASSIFICATION_TYPE = U
NORAD_CAT_ID   = 89029
ELEMENT_SET_NO = 999
REV_AT_EPOCH   = 66755
BSTAR          = .55258E-3
MEAN_MOTION_DOT = .616E-4
MEAN_MOTION_DDOT = 0

CCSDS_OMM_VERS = 2.0
CREATION_DATE  = 
ORIGINATOR     = 

OBJECT_NAME    = UNKNOWN
OBJECT_ID      = 
CENTER_NAME    = EARTH
REF_FRAME      = TEME
TIME_SYSTEM    = UTC
MEAN_ELEMENT_THEORY = SGP/SGP4

EPOCH          = 2026-04-01T15:43:00.005088
MEAN_MOTION    = 13.04042441
ECCENTRICITY   = .0146273
INCLINATION    = 100.4750
RA_OF_ASC_NODE = 29.9210
ARG_OF_PERICENTER = 223.0426
MEAN_ANOMALY   = 135.9164

EPHEMERIS_TYPE = 0
CLASSIFICATION_TYPE = U
NORAD_CAT_ID   = 89101
ELEMENT_SET_NO = 999
REV_AT_EPOCH   = 56917
BSTAR          = .12472E-2
MEAN_MOTION_DOT = .375E-5
MEAN_MOTION_DDOT = 0

CCSDS_OMM_VERS = 2.0
CREATION_DATE  = 
ORIGINATOR     = 

OBJECT_NAME    = UNKNOWN
OBJECT_ID      = 
CENTER_NAME    = EARTH
REF_FRAME      = TEME
TIME_SYSTEM    = UTC
MEAN_ELEMENT_THEORY = SGP/SGP4

EPOCH          = 2026-03-28T13:34:07.983552
MEAN_MOTION    = 8.88041995
ECCENTRICITY   = .2924305
INCLINATION    = 63.4178
RA_OF_ASC_NODE = 287.3170
ARG_OF_PERICENTER = 319.7281
MEAN_ANOMALY   = 21.9439

EPHEMERIS_TYPE = 0
CLASSIFICATION_TYPE = U
NORAD_CAT_ID   = 89132
ELEMENT_SET_NO = 999
REV_AT_EPOCH   = 33450
BSTAR          = .19457E-2
MEAN_MOTION_DOT = .1441E-4
MEAN_MOTION_DDOT = 0

CCSDS_OMM_VERS = 2.0
CREATION_DATE  = 
ORIGINATOR     = 

OBJECT_NAME    = UNKNOWN
OBJECT_ID      = 
CENTER_NAME    = EARTH
REF_FRAME      = TEME
TIME_SYSTEM    = UTC
MEAN_ELEMENT_THEORY = SGP/SGP4

EPOCH          = 2026-04-03T01:48:08.702208
MEAN_MOTION    = 14.64210912
ECCENTRICITY   = .0093115
INCLINATION    = 98.2556
RA_OF_ASC_NODE = 26.9254
ARG_OF_PERICENTER = 66.8112
MEAN_ANOMALY   = 294.2866

EPHEMERIS_TYPE = 0
CLASSIFICATION_TYPE = U
NORAD_CAT_ID   = 89146
ELEMENT_SET_NO = 999
REV_AT_EPOCH   = 64516
BSTAR          = .14784E-2
MEAN_MOTION_DOT = .8248E-4
MEAN_MOTION_DDOT = 0

CCSDS_OMM_VERS = 2.0
CREATION_DATE  = 
ORIGINATOR     = 

OBJECT_NAME    = UNKNOWN
OBJECT_ID      = 
CENTER_NAME    = EARTH
REF_FRAME      = TEME
TIME_SYSTEM    = UTC
MEAN_ELEMENT_THEORY = SGP/SGP4

EPOCH          = 2026-03-20T08:17:33.957888
MEAN_MOTION    = 15.93413522
ECCENTRICITY   = .0009475
INCLINATION    = 97.6294
RA_OF_ASC_NODE = 106.9899
ARG_OF_PERICENTER = 106.8536
MEAN_ANOMALY   = 253.3777

EPHEMERIS_TYPE = 0
CLASSIFICATION_TYPE = U
NORAD_CAT_ID   = 89161
ELEMENT_SET_NO = 999
REV_AT_EPOCH   = 56376
BSTAR          = .31768E-2
MEAN_MOTION_DOT = .1120648E-1
MEAN_MOTION_DDOT = .57617E-3

CCSDS_OMM_VERS = 2.0
CREATION_DATE  = 
ORIGINATOR     = 

OBJECT_NAME    = UNKNOWN
OBJECT_ID      = 
CENTER_NAME    = EARTH
REF_FRAME      = TEME
TIME_SYSTEM    = UTC
MEAN_ELEMENT_THEORY = SGP/SGP4

EPOCH          = 2026-03-27T02:03:30.399264
MEAN_MOTION    = 14.49498207
ECCENTRICITY   = .027941
INCLINATION    = 82.0615
RA_OF_ASC_NODE = 123.7785
ARG_OF_PERICENTER = 319.4500
MEAN_ANOMALY   = 38.6169

EPHEMERIS_TYPE = 0
CLASSIFICATION_TYPE = U
NORAD_CAT_ID   = 89172
ELEMENT_SET_NO = 999
REV_AT_EPOCH   = 61699
BSTAR          = .15282E-2
MEAN_MOTION_DOT = .9705E-4
MEAN_MOTION_DDOT = 0

CCSDS_OMM_VERS = 2.0
CREATION_DATE  = 
ORIGINATOR     = 

OBJECT_NAME    = UNKNOWN
OBJECT_ID      = 
CENTER_NAME    = EARTH
REF_FRAME      = TEME
TIME_SYSTEM    = UTC
MEAN_ELEMENT_THEORY = SGP/SGP4

EPOCH          = 2026-04-03T13:41:11.338368
MEAN_MOTION    = 13.81733929
ECCENTRICITY   = .0129156
INCLINATION    = 99.2170
RA_OF_ASC_NODE = 7.1010
ARG_OF_PERICENTER = 218.8865
MEAN_ANOMALY   = 140.2944

EPHEMERIS_TYPE = 0
CLASSIFICATION_TYPE = U
NORAD_CAT_ID   = 89183
ELEMENT_SET_NO = 999
REV_AT_EPOCH   = 62241
BSTAR          = .6356E-3
MEAN_MOTION_DOT = .68E-5
MEAN_MOTION_DDOT = 0

