UNKNOWN                 
1 87884U          26090.02656346  .00000258  00000+0  16353-3 0  9999
2 87884  98.7320 195.0738 0154915 123.4543 238.1546 14.06068330633581
UNKNOWN                 
1 87934U          26086.66057383  .00000092  00000+0  82850-4 0  9998
2 87934  82.9367 222.1462 0031922 104.6301 272.3687 13.73127491618715
UNKNOWN                 
1 87991U          26091.46817672 -.00002476  00000+0 -49718-2 0  9994
2 87991  28.6205 158.9076 0894050  66.7034 302.5014 12.35679013536575
UNKNOWN                 
1 88780U 25241B   26077.87414291  .00007938  00000+0  35116-3 0  9998
2 88780  51.6342  29.1833 0004488 186.7062 173.3856 15.22548355  1143
UNKNOWN                 
1 89005U          26091.97618315  .00002463  00000+0  55699-3 0  9991
2 89005  97.8428 277.9346 0190322  52.3824 309.4475 14.46425672550026
UNKNOWN                 
1 89029U          26091.98934842  .00006160  00000+0  55258-3 0  9993
2 89029  98.0430 359.1144 0021386 322.6896  37.2838 14.95963937667553
UNKNOWN                 
1 89101U          26091.65486117  .00000375  00000+0  12472-2 0  9997
2 89101 100.4750  29.9210 0146273 223.0426 135.9164 13.04042441569173
UNKNOWN                 
1 89132U          26087.56537018  .00001441  00000+0  19457-2 0  9998
2 89132  63.4178 287.3170 2924305 319.7281  21.9439  8.88041995334503
UNKNOWN                 
1 89146U          26093.07510072  .00008248  00000+0  14784-2 0  9997
2 89146  98.2556  26.9254 0093115  66.8112 294.2866 14.64210912645165
UNKNOWN                 
1 89161U          26079.34553192  .01120648  57617-3  31768-2 0  9999
2 89161  97.6294 106.9899 0009475 106.8536 253.3777 15.93413522563766
UNKNOWN                 
1 89172U          26086.08576851  .00009705  00000+0  15282-2 0  9999
2 89172  82.0615 123.7785 0279410 319.4500  38.6169 14.49498207616991
UNKNOWN                 
1 89183U          26093.57027012  .00000680  00000+0  63560-3 0  9999
2 89183  99.2170   7.1010 0129156 218.8865 140.2944 13.81733929622415
